{
  "norad_id": 62797,
  "name": "QIANFAN-67",
  "history": [
    {
      "epoch": "2026-03-28T19:44:43.782144Z",
      "apogee_km": 1080.8875604067498,
      "perigee_km": 1056.3030672804734,
      "latitude_deg": 7.886242846425778e-05,
      "longitude_deg": -30.364678748254107,
      "height_km": 1062.877893279211,
      "semi_major_axis_km": 7446.732313843611,
      "eccentricity": 0.00165069,
      "inclination_deg": 88.9672,
      "raan_deg": 92.0554,
      "arg_perigee_deg": 45.3345,
      "mean_anomaly_deg": 314.9149,
      "mean_motion_rev_day": 13.50996264
    },
    {
      "epoch": "2026-03-29T02:51:20.081088Z",
      "apogee_km": 1080.8711158754368,
      "perigee_km": 1056.319239884966,
      "latitude_deg": -6.641495180941484e-05,
      "longitude_deg": -137.33882769709024,
      "height_km": 1062.7746082695344,
      "semi_major_axis_km": 7446.732177880202,
      "eccentricity": 0.0016485,
      "inclination_deg": 88.9672,
      "raan_deg": 92.0245,
      "arg_perigee_deg": 44.5736,
      "mean_anomaly_deg": 315.6737,
      "mean_motion_rev_day": 13.50996301
    },
    {
      "epoch": "2026-03-30T05:31:06.186144Z",
      "apogee_km": 1080.8082153634905,
      "perigee_km": 1056.3811482315914,
      "latitude_deg": 1.64823782354182e-05,
      "longitude_deg": -178.49173246956158,
      "height_km": 1062.3889074710166,
      "semi_major_axis_km": 7446.731681797541,
      "eccentricity": 0.00164012,
      "inclination_deg": 88.9672,
      "raan_deg": 91.9087,
      "arg_perigee_deg": 41.6088,
      "mean_anomaly_deg": 318.6308,
      "mean_motion_rev_day": 13.50996436
    },
    {
      "epoch": "2026-03-30T12:37:42.479904Z",
      "apogee_km": 1080.789517558801,
      "perigee_km": 1056.3996843500918,
      "latitude_deg": 2.5894791963798743e-05,
      "longitude_deg": 74.53424336611661,
      "height_km": 1062.2885448374711,
      "semi_major_axis_km": 7446.731600954447,
      "eccentricity": 0.00163762,
      "inclination_deg": 88.9672,
      "raan_deg": 91.8779,
      "arg_perigee_deg": 40.7901,
      "mean_anomaly_deg": 319.4473,
      "mean_motion_rev_day": 13.50996458
    },
    {
      "epoch": "2026-03-30T23:17:36.919680Z",
      "apogee_km": 1080.7652769004526,
      "perigee_km": 1056.423550190484,
      "latitude_deg": -1.094501766104409e-05,
      "longitude_deg": -85.926890184453,
      "height_km": 1062.147031694172,
      "semi_major_axis_km": 7446.731413545468,
      "eccentricity": 0.00163439,
      "inclination_deg": 88.9672,
      "raan_deg": 91.8316,
      "arg_perigee_deg": 39.6206,
      "mean_anomaly_deg": 320.6136,
      "mean_motion_rev_day": 13.50996509
    },
    {
      "epoch": "2026-03-31T18:50:46.724928Z",
      "apogee_km": 1080.7199557514987,
      "perigee_km": 1056.4689301344115,
      "latitude_deg": -1.2980700118579374e-05,
      "longitude_deg": -20.10574611260616,
      "height_km": 1061.9012661886022,
      "semi_major_axis_km": 7446.731442942955,
      "eccentricity": 0.0016283,
      "inclination_deg": 88.9673,
      "raan_deg": 91.7466,
      "arg_perigee_deg": 37.4806,
      "mean_anomaly_deg": 322.7477,
      "mean_motion_rev_day": 13.50996501
    },
    {
      "epoch": "2026-04-01T19:43:53.734944Z",
      "apogee_km": 1080.6563935283084,
      "perigee_km": 1056.5319632028759,
      "latitude_deg": 3.0095463853945507e-05,
      "longitude_deg": -34.51505458231353,
      "height_km": 1061.6097560212331,
      "semi_major_axis_km": 7446.731178365591,
      "eccentricity": 0.0016198,
      "inclination_deg": 88.9674,
      "raan_deg": 91.6385,
      "arg_perigee_deg": 34.7116,
      "mean_anomaly_deg": 325.5089,
      "mean_motion_rev_day": 13.50996573
    },
    {
      "epoch": "2026-04-02T18:50:21.674112Z",
      "apogee_km": 1080.5982243711087,
      "perigee_km": 1056.5899633245435,
      "latitude_deg": -9.05921779527214e-07,
      "longitude_deg": -22.180769588867367,
      "height_km": 1061.3648545031522,
      "semi_major_axis_km": 7446.731093847826,
      "eccentricity": 0.001612,
      "inclination_deg": 88.9674,
      "raan_deg": 91.5382,
      "arg_perigee_deg": 32.1618,
      "mean_anomaly_deg": 328.0513,
      "mean_motion_rev_day": 13.50996596
    },
    {
      "epoch": "2026-04-02T22:23:39.815808Z",
      "apogee_km": 1080.5887245658223,
      "perigee_km": 1056.5990809625682,
      "latitude_deg": -4.0247134821931555e-05,
      "longitude_deg": -75.66776086951054,
      "height_km": 1061.328839719158,
      "semi_major_axis_km": 7446.730902764195,
      "eccentricity": 0.00161075,
      "inclination_deg": 88.9674,
      "raan_deg": 91.5228,
      "arg_perigee_deg": 31.7649,
      "mean_anomaly_deg": 328.447,
      "mean_motion_rev_day": 13.50996648
    },
    {
      "epoch": "2026-04-03T16:10:10.524288Z",
      "apogee_km": 1080.5423971670798,
      "perigee_km": 1056.6443500520918,
      "latitude_deg": -1.746469686347272e-06,
      "longitude_deg": 16.897086423845064,
      "height_km": 1061.1644087375475,
      "semi_major_axis_km": 7446.7303736095855,
      "eccentricity": 0.0016046,
      "inclination_deg": 88.9675,
      "raan_deg": 91.4456,
      "arg_perigee_deg": 29.8537,
      "mean_anomaly_deg": 330.3526,
      "mean_motion_rev_day": 13.50996792
    },
    {
      "epoch": "2026-04-04T18:49:55.731648Z",
      "apogee_km": 1080.4254002698008,
      "perigee_km": 1056.677910148339,
      "latitude_deg": 4.5340208748891094e-05,
      "longitude_deg": -24.251969834071044,
      "height_km": 1060.8864562113488,
      "semi_major_axis_km": 7446.68865520907,
      "eccentricity": 0.0015945,
      "inclination_deg": 88.9676,
      "raan_deg": 91.3299,
      "arg_perigee_deg": 26.7641,
      "mean_anomaly_deg": 333.433,
      "mean_motion_rev_day": 13.51008145
    },
    {
      "epoch": "2026-04-05T12:36:25.895808Z",
      "apogee_km": 1080.3748370035355,
      "perigee_km": 1056.7278781240902,
      "latitude_deg": -1.537673149048454e-05,
      "longitude_deg": 68.31524874836519,
      "height_km": 1060.7477892429959,
      "semi_major_axis_km": 7446.688357563812,
      "eccentricity": 0.00158775,
      "inclination_deg": 88.9677,
      "raan_deg": 91.2528,
      "arg_perigee_deg": 24.7036,
      "mean_anomaly_deg": 335.4872,
      "mean_motion_rev_day": 13.51008226
    },
    {
      "epoch": "2026-04-05T19:43:01.959744Z",
      "apogee_km": 1080.355638162143,
      "perigee_km": 1056.7466580573764,
      "latitude_deg": -5.8826154761318034e-05,
      "longitude_deg": -38.657917014834965,
      "height_km": 1060.6968223773586,
      "semi_major_axis_km": 7446.688148109759,
      "eccentricity": 0.0015852,
      "inclination_deg": 88.9677,
      "raan_deg": 91.2219,
      "arg_perigee_deg": 23.8952,
      "mean_anomaly_deg": 336.2931,
      "mean_motion_rev_day": 13.51008283
    },
    {
      "epoch": "2026-04-06T04:36:17.041824Z",
      "apogee_km": 1080.329371471189,
      "perigee_km": 1056.772667524071,
      "latitude_deg": -1.3905078020246832e-05,
      "longitude_deg": -172.37435659703033,
      "height_km": 1060.6401427523122,
      "semi_major_axis_km": 7446.688019497629,
      "eccentricity": 0.00158169,
      "inclination_deg": 88.9677,
      "raan_deg": 91.1833,
      "arg_perigee_deg": 22.9021,
      "mean_anomaly_deg": 337.2832,
      "mean_motion_rev_day": 13.51008318
    },
    {
      "epoch": "2026-04-07T14:22:38.350272Z",
      "apogee_km": 1080.2334773904222,
      "perigee_km": 1056.868451365871,
      "latitude_deg": 7.121536162006067e-05,
      "longitude_deg": 39.50326515769887,
      "height_km": 1060.448848387789,
      "semi_major_axis_km": 7446.687964378147,
      "eccentricity": 0.00156882,
      "inclination_deg": 88.9678,
      "raan_deg": 91.0367,
      "arg_perigee_deg": 19.0384,
      "mean_anomaly_deg": 341.1351,
      "mean_motion_rev_day": 13.51008333
    },
    {
      "epoch": "2026-04-07T19:42:35.399520Z",
      "apogee_km": 1080.2191797495316,
      "perigee_km": 1056.8827490067624,
      "latitude_deg": 5.152685057486302e-05,
      "longitude_deg": -40.726639601752225,
      "height_km": 1060.422840440634,
      "semi_major_axis_km": 7446.687964378147,
      "eccentricity": 0.0015669,
      "inclination_deg": 88.9678,
      "raan_deg": 91.0135,
      "arg_perigee_deg": 18.4285,
      "mean_anomaly_deg": 341.7431,
      "mean_motion_rev_day": 13.51008333
    },
    {
      "epoch": "2026-04-08T13:29:05.560224Z",
      "apogee_km": 1080.1659220687388,
      "perigee_km": 1056.9358303052159,
      "latitude_deg": 2.052440397148798e-05,
      "longitude_deg": 51.840592839264545,
      "height_km": 1060.353642550913,
      "semi_major_axis_km": 7446.6878761869775,
      "eccentricity": 0.00155976,
      "inclination_deg": 88.9678,
      "raan_deg": 90.9364,
      "arg_perigee_deg": 16.4408,
      "mean_anomaly_deg": 343.7246,
      "mean_motion_rev_day": 13.51008357
    },
    {
      "epoch": "2026-04-09T19:42:08.817696Z",
      "apogee_km": 1080.0718985065223,
      "perigee_km": 1057.0288690661328,
      "latitude_deg": 4.0834112650408034e-05,
      "longitude_deg": -42.795174903177944,
      "height_km": 1060.2671209802697,
      "semi_major_axis_km": 7446.687383786327,
      "eccentricity": 0.0015472,
      "inclination_deg": 88.9679,
      "raan_deg": 90.8052,
      "arg_perigee_deg": 12.9581,
      "mean_anomaly_deg": 347.1965,
      "mean_motion_rev_day": 13.51008491
    },
    {
      "epoch": "2026-04-10T06:22:02.910144Z",
      "apogee_km": 1080.0381310290986,
      "perigee_km": 1057.0627173854446,
      "latitude_deg": -2.6057361167414574e-05,
      "longitude_deg": 156.74514050302903,
      "height_km": 1060.2492140481393,
      "semi_major_axis_km": 7446.687424207272,
      "eccentricity": 0.00154266,
      "inclination_deg": 88.9679,
      "raan_deg": 90.7589,
      "arg_perigee_deg": 11.7567,
      "mean_anomaly_deg": 348.3941,
      "mean_motion_rev_day": 13.5100848
    }
  ]
}